{
"type": "FeatureCollection",
"name": "honortheearth-datacenters",
"crs": { "type": "name", "properties": { "name": "urn:ogc:def:crs:OGC:1.3:CRS84" } },
"features": [
{ "type": "Feature", "properties": { "Project_Name": "Colstrip Data Center ", "Latitude": 45.88201, "Longitude": -106.62895, "Overview": "The development of an unnamed hyperscale data center has been proposed just 10 miles North of Northern Cheyenne jurisdiction, near Colstrip, MT. In addition to the data center, a small nuclear modular reactor (SMR) has also been proposed to help power the data center. There is also the potential development of a uranium enrichment facility and nuclear waste storage facility to support the SMR’s existence. Both of which will have detrimental impacts on Northern Cheyenne homelands’ land, air, and People", "Status": "Planned", "Source": "Honor The Earth", "ObjectId": 1 }, "geometry": { "type": "Point", "coordinates": [ -106.62895, 45.88201 ] } },
{ "type": "Feature", "properties": { "Project_Name": "Quantica: Big Sky Campus", "Latitude": 45.782628, "Longitude": -108.504731, "Overview": "Quantica Infrastructure, a new company that provides land and power for data centers, is planning to build a 5,000-acre energy and digital infrastructure campus near Billings, Montana. Dubbed the \"Big Sky Campus,\" the project will initially offer 500 MW of renewable power and battery storage, with the potential to expand to 1 GW. Construction is set to begin in 2026. NorthWestern Energy Group will provide energy services for the campus. The initial electric service for the first phase is expected to begin as early as 2026, with the load reaching 500 MW by 2030.", "Status": "Planned - 2028", "Source": "https://baxtel.com/data-center/quantica-big-sky-campus", "ObjectId": 2 }, "geometry": { "type": "Point", "coordinates": [ -108.504731, 45.782628 ] } },
{ "type": "Feature", "properties": { "Project_Name": "Quantica: Big Sky Campus 2", "Latitude": 45.782628, "Longitude": -108.504731, "Overview": "Planned expansion as part of Quantica Big Sky Campus.", "Status": "Planned - Expansion", "Source": "https://baxtel.com/data-center/quantica-big-sky-expansion", "ObjectId": 3 }, "geometry": { "type": "Point", "coordinates": [ -108.504731, 45.782628 ] } },
{ "type": "Feature", "properties": { "Project_Name": "TAC Great Falls Campus", "Latitude": 47.52767, "Longitude": -111.194174, "Overview": "Atlanta-based TAC Data Centers is set to invest between $1 billion and $1.5 billion in a new 569-acre development in Montana, adjacent to the AgriTech Park. This ambitious project, dubbed Project Cardinal, will encompass 2 million square feet (185,805 sqm) of data center space. Construction is slated to kick off in 2026. The first buildings, ranging from 135,000 to 200,000 square feet (12,540-18,580 sqm), are expected to be operational by late 2027 or early 2028. The company anticipates the entire campus will be fully built out by 2030. TAC Data Centers is a wholly-owned data center platform of The Ardent Companies. It's important to note that this is a distinct entity from Northern Data's Ardent Data Centers unit.", "Status": "Planned - 2027", "Source": "https://baxtel.com/data-center/tac-great-falls-campus", "ObjectId": 4 }, "geometry": { "type": "Point", "coordinates": [ -111.194174, 47.52767 ] } },
{ "type": "Feature", "properties": { "Project_Name": "TAC Great Falls Campusm- Expansion", "Latitude": 47.530043, "Longitude": -111.190762, "Overview": "Planned expansion as part of TAC Great Falls Campus.", "Status": "Planned - Expansion ", "Source": "https://baxtel.com/data-center/tac-great-falls-expansion", "ObjectId": 5 }, "geometry": { "type": "Point", "coordinates": [ -111.190762, 47.530043 ] } },
{ "type": "Feature", "properties": { "Project_Name": "Binary.net The Vault", "Latitude": 40.81288853, "Longitude": -96.70236053000001, "Overview": "Binary Net acquired the data center in May 2019 when the company acquired Lincoln Data Investments (LDI) as a subsidiary. It is now known as Lincoln Data Centers.", "Status": "Operational - \"Colocation, data backup and recovery, internet services and more for businesses of all sizes.\"", "Source": "https://baxtel.com/data-center/binarynet-sharp-building", "ObjectId": 6 }, "geometry": { "type": "Point", "coordinates": [ -96.70236053, 40.81288853 ] } },
{ "type": "Feature", "properties": { "Project_Name": "Google Lincoln NE", "Latitude": 40.905323, "Longitude": -96.649827, "Overview": "Google's newest data center, roughly 580 acres in Nebraska.", "Status": "In construction - Operation expected fall 2025", "Source": "https://baxtel.com/data-center/google-lincoln-ne", "ObjectId": 7 }, "geometry": { "type": "Point", "coordinates": [ -96.649827, 40.905323 ] } },
{ "type": "Feature", "properties": { "Project_Name": "AAIM Nebraska 1", "Latitude": 40.842763, "Longitude": -97.991996, "Overview": "AAIM's Nebraska 1 data center, operational since October 2024, achieved an impressive feat by launching just five months after its May 2024 groundbreaking. A key highlight of this facility is the incorporation of Nebraska's first privately held substation, running at 67kV.", "Status": "Operational - Colocation ", "Source": "https://baxtel.com/data-center/aaim-nebraska-1", "ObjectId": 8 }, "geometry": { "type": "Point", "coordinates": [ -97.991996, 40.842763 ] } },
{ "type": "Feature", "properties": { "Project_Name": "AAIM Nebraska 2", "Latitude": 40.671225, "Longitude": -98.598377, "Overview": "The Adams County Planning and Zoning Commission has recommended approving a permit for the county's first commercial cryptocurrency mining data center. This facility would be built on 2.64 acres, roughly half a mile west of the CPI Hayland elevator near Prosser. To power the operation, AAIM plans to construct a 12.5-megawatt substation, connecting to Southern Power District's electrical supply.", "Status": "Planned - Under construction ", "Source": "https://baxtel.com/data-center/aaim-nebraska-2", "ObjectId": 9 }, "geometry": { "type": "Point", "coordinates": [ -98.598377, 40.671225 ] } },
{ "type": "Feature", "properties": { "Project_Name": "Google Omaha building 3", "Latitude": 41.346171, "Longitude": -96.094971, "Overview": "This data center is a part of Google's Omaha Campus.", "Status": "Expanding - Under Construction 2025", "Source": "https://baxtel.com/data-center/google-omaha-3", "ObjectId": 10 }, "geometry": { "type": "Point", "coordinates": [ -96.094971, 41.346171 ] } },
{ "type": "Feature", "properties": { "Project_Name": "Google Omaha Building 4", "Latitude": 41.34257, "Longitude": -96.094971, "Overview": "This data center is a part of Google's Omaha Campus.", "Status": "Expanding - Planned", "Source": "https://baxtel.com/data-center/google-omaha-4", "ObjectId": 11 }, "geometry": { "type": "Point", "coordinates": [ -96.094971, 41.34257 ] } },
{ "type": "Feature", "properties": { "Project_Name": "Project Anthem, OK", "Latitude": 36.148706, "Longitude": -95.733551, "Overview": "A 340-acre data center project known as Project Anthem at the intersection of 11th Street and the west side of the Creek Turnpike is being proposed in Tulsa, Oklahoma. Construction on the $800 million site is set to take three years. It's unclear which company is behind Project Anthem. Tulsa World suggests it could be Meta, based on the investment amount matching other projects from the social media firm. Neither Tulsa, nor Oklahoma more generally, has a major data center ecosystem.", "Status": "Planned - 2028", "Source": "https://baxtel.com/data-center/project-anthem", "ObjectId": 12 }, "geometry": { "type": "Point", "coordinates": [ -95.733551, 36.148706 ] } },
{ "type": "Feature", "properties": { "Project_Name": "Project Clydesdale, OK", "Latitude": 36.266892, "Longitude": -95.904887, "Overview": "An undisclosed company has submitted a rezoning application for 506 acres in Tulsa County, proposing to change the land's classification from agricultural (AG) to industrial. This land, currently owned by Bird Creek Ranch Limited Partnership, is located north and west of the intersection of E 76th Street N and North Sheridan Road. The company plans to develop a data center campus, code-named Project Clydesdale, on the site.", "Status": "Planned - 2028 (2 Phases)", "Source": "https://baxtel.com/data-center/project-clydesdale", "ObjectId": 13 }, "geometry": { "type": "Point", "coordinates": [ -95.904887, 36.266892 ] } },
{ "type": "Feature", "properties": { "Project_Name": "Reggie Wassana data center Cheyenne Arapaho, OK", "Latitude": 35.606432, "Longitude": -97.992463, "Overview": "TBA", "Status": "Rumored", "Source": "TBA", "ObjectId": 14 }, "geometry": { "type": "Point", "coordinates": [ -97.992463, 35.606432 ] } },
{ "type": "Feature", "properties": { "Project_Name": "Google Stillwater Campus ID1, OK", "Latitude": 36.172218, "Longitude": -97.036841, "Overview": "Google is set to build a $3 billion data center campus project in Stillwater. The project, planned for 400 acres of state-owned land north of the former Armstrong facility, could include up to six data centers. Stillwater's Planning Commission has unanimously approved the first two phases, each comprising approximately 300,000 square feet. Phase I could be operational by 2027. Each data center is projected to generate tax revenue equivalent to 250 new houses valued at $300,000 each, bringing significant economic benefits to the city, state, and country.", "Status": "Planned- 2027 Homeowners Association (HOA) of Park View Estates in Stillwater sues Google. Says the construction is ruining the neighborhood's pond and wildlife (Along with the rest of the phases). ", "Source": "https://baxtel.com/data-center/google-stillwater-data-center", "ObjectId": 15 }, "geometry": { "type": "Point", "coordinates": [ -97.036841, 36.172218 ] } },
{ "type": "Feature", "properties": { "Project_Name": "Google Stillwater Campus ID2, OK", "Latitude": 36.169715, "Longitude": -97.038081, "Overview": "This facility will be part of Google's Stillwater Data Center Campus in Oklahoma.", "Status": "Planned - 2028 Homeowners Association (HOA) of Park View Estates in Stillwater sues Google. Says the construction is ruining the neighborhood's pond and wildlife (Along with the rest of the phases). ", "Source": "https://baxtel.com/data-center/google-stillwater-id2", "ObjectId": 16 }, "geometry": { "type": "Point", "coordinates": [ -97.038081, 36.169715 ] } },
{ "type": "Feature", "properties": { "Project_Name": "Google Stillwater Campus ID3, OK", "Latitude": 36.164987, "Longitude": -97.043409, "Overview": "This facility will be part of Google's Stillwater Data Center Campus in Oklahoma.", "Status": "Planned - 2029 Homeowners Association (HOA) of Park View Estates in Stillwater sues Google. Says the construction is ruining the neighborhood's pond and wildlife (Along with the rest of the phases).", "Source": "https://baxtel.com/data-center/google-stillwater-id3", "ObjectId": 17 }, "geometry": { "type": "Point", "coordinates": [ -97.043409, 36.164987 ] } },
{ "type": "Feature", "properties": { "Project_Name": "Google Stillwater Campus ID4, OK", "Latitude": 36.167037, "Longitude": -97.044902, "Overview": "This facility will be part of Google's Stillwater Data Center Campus in Oklahoma.", "Status": "Planned - 2030 Homeowners Association (HOA) of Park View Estates in Stillwater sues Google. Says the construction is ruining the neighborhood's pond and wildlife (Along with the rest of the phases).", "Source": "https://baxtel.com/data-center/google-stillwater-id4", "ObjectId": 18 }, "geometry": { "type": "Point", "coordinates": [ -97.044902, 36.167037 ] } },
{ "type": "Feature", "properties": { "Project_Name": "Google Stillwater Campus ID5, OK", "Latitude": 36.169031, "Longitude": -97.045561, "Overview": "This facility will be part of Google's Stillwater Data Center Campus in Oklahoma.", "Status": "Planned - 2031 Homeowners Association (HOA) of Park View Estates in Stillwater sues Google. Says the construction is ruining the neighborhood's pond and wildlife (Along with the rest of the phases).", "Source": "https://baxtel.com/data-center/google-stillwater-id5", "ObjectId": 19 }, "geometry": { "type": "Point", "coordinates": [ -97.045561, 36.169031 ] } },
{ "type": "Feature", "properties": { "Project_Name": "Google Stillwater Campus ID6, OK", "Latitude": 36.171071, "Longitude": -97.049811, "Overview": "This facility will be part of Google's Stillwater Data Center Campus in Oklahoma.", "Status": "Planned - 2032 Homeowners Association (HOA) of Park View Estates in Stillwater sues Google. Says the construction is ruining the neighborhood's pond and wildlife (Along with the rest of the phases).", "Source": "https://baxtel.com/data-center/google-stillwater-id6", "ObjectId": 20 }, "geometry": { "type": "Point", "coordinates": [ -97.049811, 36.171071 ] } },
{ "type": "Feature", "properties": { "Project_Name": "Google Pryor Campus", "Latitude": 36.240387, "Longitude": -95.330011, "Overview": "Google is making $9 billion in new investments over the next two years to expand its operations in Oklahoma.", "Status": "Operating - Expanding (Under construction) expected to open new facility in 2027 or 2028", "Source": "https://www.news9.com/story/689ceb7935c02bda0f23fd03/google-9-billion-oklahoma-investment-pryor-stillwater-data-centers-workforce-programs-jobs-ai", "ObjectId": 21 }, "geometry": { "type": "Point", "coordinates": [ -95.330011, 36.240387 ] } },
{ "type": "Feature", "properties": { "Project_Name": "Beltline Holdings LLC Yukon OK", "Latitude": 35.506761, "Longitude": -97.779176, "Overview": "Yukon mayor has entered non-disclosure agreement (NDA) with Beltline Holdings LLC (Georgia based company)", "Status": "Planned ", "Source": "https://kfor.com/news/local/yukon-mayor-says-former-city-manager-signed-nda-with-data-center-developer-before-public-disclosure/", "ObjectId": 22 }, "geometry": { "type": "Point", "coordinates": [ -97.779176, 35.506761 ] } },
{ "type": "Feature", "properties": { "Project_Name": "Vantage: Port Washington Campus, Wisconsin North Phase", "Latitude": 43.448877, "Longitude": -87.854778, "Overview": "Aquired from Cloverleaf Infrastructure partners in 2025, Vantage Data Centers plans to build a data center complex in Port Washington on up to 1,900 acres, potentially making it one of the world's largest. While Vantage hasn't officially announced its plans, discussions between Cloverleaf and city officials indicate the campus could span 1,900 acres and consume 3.5 gigawatts of electricity. Conceptual plans for the campus include 11 data center buildings and five substations. These buildings will house thousands of interconnected computers, using fiber optic cables to connect to the outside world. This infrastructure is essential for powering a vast array of modern online services, including social media, video streaming, cloud storage, banking, air traffic control, and increasingly, AI tools. The development is expected to unfold in two to three phases. Construction on the initial phase could begin in Fall 2025 and be completed by 2027. The entire complex is projected to take 6 to 10 years to build out, with full completion anticipated between 2030 and 2035.", "Status": "Planning - Projected 2027", "Source": "https://baxtel.com/data-center/vantage-port-washington-campus", "ObjectId": 23 }, "geometry": { "type": "Point", "coordinates": [ -87.854778, 43.448877 ] } },
{ "type": "Feature", "properties": { "Project_Name": "Vantage: Port Washington Campus, Wisconsin South Phase", "Latitude": 43.433728, "Longitude": -87.857062, "Overview": "This facility will be part of Vantage's Port Washington Campus.", "Status": "Planning - Projected 2027", "Source": "https://baxtel.com/data-center/vantage-port-washington-expansion", "ObjectId": 24 }, "geometry": { "type": "Point", "coordinates": [ -87.857062, 43.433728 ] } },
{ "type": "Feature", "properties": { "Project_Name": "Balloonist: Menomonie, Wisconsin", "Latitude": 44.922745, "Longitude": -91.847205, "Overview": "A company called Balloonist LLC proposed a $1.6 Billion data center project to Menomonie City Council in 2024. The council approved annexing and rezoning about 320 acres of farmland for the project. Balloonist LLC has not disclosed who will operate the completed project.", "Status": "Planned - Menomonie City council Annexed and rezoned land Aug 2024", "Source": "https://www.wpr.org/news/data-center-proposed-menomonie-strong-response-concerned-citizens", "ObjectId": 25 }, "geometry": { "type": "Point", "coordinates": [ -91.847205, 44.922745 ] } },
{ "type": "Feature", "properties": { "Project_Name": "Project Nova, Caldonia, South Milwaukee WI", "Latitude": 42.846364, "Longitude": -87.856958, "Overview": "Microsoft decided to back out of the orginally proposed site (Mapped here), but remains committed to developing in southeastern Wisconsin, ", "Status": "Project at this site cancelled by Microsoft, looking to work with Racine county to build on another site", "Source": "https://www.fox6now.com/news/data-center-caledonia-microsoft-shuts-down-plans-build?link_source=ta_first_comment&taid=68e6838961519500013f8418&fbclid=IwdGRleANUiRxleHRuA2FlbQIxMQABHlRbdnfkszqy1cl77veOTUoLCqSoJCXiIGD1w3-HtyN_smEH05MwaBJvhY9o_aem_CzgxWANvZoMXFjEDxbPTvw", "ObjectId": 26 }, "geometry": { "type": "Point", "coordinates": [ -87.856958, 42.846364 ] } },
{ "type": "Feature", "properties": { "Project_Name": "Crusoe: Cheyenne WY", "Latitude": 41.012713, "Longitude": -104.768561, "Overview": "Crusoe has partnered with Tallgrass to develop a gigawatt-scale AI data center campus in Wyoming. Located just south of Cheyenne near the Colorado state line, the project is designed to expand up to 10GW. It will utilize a mix of natural gas and future renewable energy sources, benefiting from Tallgrass' nearby CO2 sequestration hub for carbon capture and its existing natural gas and water infrastructure in the state.", "Status": "Planned - Expansion 2028", "Source": "https://baxtel.com/data-center/crusoe-wyoming", "ObjectId": 27 }, "geometry": { "type": "Point", "coordinates": [ -104.768561, 41.012713 ] } },
{ "type": "Feature", "properties": { "Project_Name": "Related Digital Cheyenne WY", "Latitude": 43.079076, "Longitude": -107.298912, "Overview": "Related Digital is aiming to develop a 115-acre campus in Wyoming.", "Status": "Planned - 2028", "Source": "https://baxtel.com/data-center/related-digital-wyoming", "ObjectId": 28 }, "geometry": { "type": "Point", "coordinates": [ -107.298912, 43.079076 ] } },
{ "type": "Feature", "properties": { "Project_Name": "Aspen Mountain Hyperscale WY", "Latitude": 41.256031, "Longitude": -110.741938, "Overview": "Construction of the Wyoming Hyperscale White Box data center began in 2022 on a 58-acre plot near Aspen Mountain in Evanston, Wyoming. This project aims to set a new standard for environmentally-friendly, highly efficient data centers that also contribute positively to local communities. The data center is being built on land owned by Thornock's family, which has been involved in ranching for 6 generations. The location benefits from ready access to renewable energy from nearby wind and solar farms. The initial phase of the Evanston project is scheduled to become operational in the first quarter of 2026, marking the debut of its first facilities. Wyoming Hyperscale has merged with Prometheus Hyperscale, expanding their initial project into plans for a massive 1 GW data center campus.", "Status": "Under Construction - Planned, Multi-phase", "Source": "https://baxtel.com/data-center/aspen-mountain-hyperscale", "ObjectId": 29 }, "geometry": { "type": "Point", "coordinates": [ -110.741938, 41.256031 ] } },
{ "type": "Feature", "properties": { "Project_Name": "Meta Eagle Mountain Building 6, Utah", "Latitude": 40.265281, "Longitude": -112.016512, "Overview": "In 2022, Meta announced plans for a mega expansion of the Eagle Mountain Site. This latest addition, consisting of two buildings, will increase the campus by approximately 2 million square feet. The expansion will bring Meta's total capital investment in the Eagle Mountain project to $1.5 billion.", "Status": "Expansion - Under Construction 2026", "Source": "https://baxtel.com/data-center/meta-eagle-6", "ObjectId": 30 }, "geometry": null },
{ "type": "Feature", "properties": { "Project_Name": "Meta Eagle Mountain Building 7, Utah", "Latitude": 40.265281, "Longitude": -112.018199, "Overview": "In 2022, Meta announced plans for a mega expansion of the Eagle Mountain Site. This latest addition, consisting of two buildings, will increase the campus by approximately 2 million square feet. The expansion will bring Meta's total capital investment in the Eagle Mountain project to $1.5 billion.", "Status": "Expansion - Under Construction 2026", "Source": "https://baxtel.com/data-center/meta-eagle-7", "ObjectId": 31 }, "geometry": { "type": "Point", "coordinates": [ -112.018199, 40.265281 ] } },
{ "type": "Feature", "properties": { "Project_Name": "Meta Cheyenne, WY", "Latitude": 41.081472, "Longitude": -104.825045, "Overview": "Meta is developing a 715,000 sq ft (66,425 sqm) data center campus in Cheyenne, Wyoming. The company plans to invest over $800 million in the 960-acre project, which it says will be optimized for AI workloads. The campus will include at least two buildings and on-site substations. Notably, these buildings will not follow Meta's traditional H design used in previous projects. Construction on the first building started in early 2024 and the facility is scheduled to open by 2027. Wyoming offers tax breaks for data center operators, which is said to have been a deciding factor in Meta pursuing the Cheyenne project. A data center development on the site, dubbed ‘Project Cosmo’, was approved by Cheyenne City Council in November 2023. At the time, Meta was using the shell company Goat Systems LLC to conduct business. The social media firm was named as the company behind the project in May 2024.", "Status": "Under Construction 2027", "Source": "https://baxtel.com/data-center/meta-cheyenne", "ObjectId": 32 }, "geometry": { "type": "Point", "coordinates": [ -104.825045, 41.081472 ] } },
{ "type": "Feature", "properties": { "Project_Name": "Meta 2 Cheyenne, WY", "Latitude": 41.081414, "Longitude": -104.818638, "Overview": "This data center building will be a part of Meta's Cheyenne Campus. Meta is developing a 715,000 sq ft (66,425 sqm) data center campus in Cheyenne, Wyoming. The company plans to invest over $800 million in the 960-acre project, which it says will be optimized for AI workloads. The campus will include at least two buildings and on-site substations. Notably, these buildings will not follow Meta's traditional H design used in previous projects", "Status": "Planned- 2030", "Source": "https://baxtel.com/data-center/meta-cheyenne-2", "ObjectId": 33 }, "geometry": { "type": "Point", "coordinates": [ -104.818638, 41.081414 ] } },
{ "type": "Feature", "properties": { "Project_Name": "Meta : Hanrico 6 Sandston Virginia (Building 1)", "Latitude": 37.4755, "Longitude": -77.235708, "Overview": "Facebook, is looking to expand its data center campus outside Richmond, Virginia. The company has acquired a large portion of land close to its existing data center within Henrico County’s White Oak Technology Park and is looking to develop more data centers under the name ‘Project Tropical’. The 475-acre plot was sold by the County’s Economic Development Authority for $35.2 million at the end of October 2022. The company has since filed to develop two data centers at 3951 Portugee Road, next to a substation and south across the road from its existing Henrico campus.", "Status": "Expansion - Under Construction 2026", "Source": "https://baxtel.com/data-center/facebook-henrico-6", "ObjectId": 34 }, "geometry": { "type": "Point", "coordinates": [ -77.235708, 37.4755 ] } },
{ "type": "Feature", "properties": { "Project_Name": "Meta: Henrico 7 Sandston Virginia (Building 2)", "Latitude": 37.474693, "Longitude": -77.2355, "Overview": "Facebook, is looking to expand its data center campus outside Richmond, Virginia. The company has acquired a large portion of land close to its existing data center within Henrico County’s White Oak Technology Park and is looking to develop more data centers under the name ‘Project Tropical’. The 475-acre plot was sold by the County’s Economic Development Authority for $35.2 million at the end of October 2022. The company has since filed to develop two data centers at 3951 Portugee Road, next to a substation and south across the road from its existing Henrico campus.", "Status": "Expansion - Under Construction 2027", "Source": "https://baxtel.com/data-center/facebook-henrico-7", "ObjectId": 35 }, "geometry": { "type": "Point", "coordinates": [ -77.2355, 37.474693 ] } },
{ "type": "Feature", "properties": { "Project_Name": "Meta: Kuna 1, ID (Building 1)", "Latitude": 43.463466, "Longitude": -116.272304, "Overview": "Meta, previously known as Facebook, has begun construction on a new data center in Kuna, Idaho. This 960,000-square-foot facility represents an $800 million investment by the social media giant. Once completed, it will be Meta's 15th data center in the United States and its 19th worldwide. The project, which was initially developed under the codename \"Project Peregrine,\" broke ground in September 2022. Construction is expected to last until 2025, marking a significant expansion of Meta's data infrastructure.", "Status": "Under Construction 2025", "Source": "https://baxtel.com/data-center/meta-kuna-idaho", "ObjectId": 36 }, "geometry": { "type": "Point", "coordinates": [ -116.272304, 43.463466 ] } },
{ "type": "Feature", "properties": { "Project_Name": "Meta :Kuna 2, ID (Building 2)", "Latitude": 43.463124, "Longitude": -116.268253, "Overview": "This data center is a part of Meta's Kuna Campus in Idaho.", "Status": "Unders Construction 2025", "Source": "https://baxtel.com/data-center/meta-kuna-2", "ObjectId": 37 }, "geometry": { "type": "Point", "coordinates": [ -116.268253, 43.463124 ] } },
{ "type": "Feature", "properties": { "Project_Name": "Applied Digital Ellendale, ND (Building 2)", "Latitude": 46.021021, "Longitude": -98.529593, "Overview": "Applied Digital's data center in Ellendale is located in Dickey County, North Dakota. It was initially designed for cryptocurrency mining operations. However, it is now being developed into an HPC facility as Applied Digital pivots to offer more AI-related services. This Facility will be part of Applied Digital's Ellendale campus.", "Status": "Planned - Expansion 2026", "Source": "https://baxtel.com/data-center/applied-digital-ellendale-bldg-2", "ObjectId": 38 }, "geometry": { "type": "Point", "coordinates": [ -98.529593, 46.021021 ] } },
{ "type": "Feature", "properties": { "Project_Name": "Applied Digital Ellendale, ND (Building 3)", "Latitude": 46.02151378, "Longitude": -98.53034447, "Overview": "Applied Digital's data center in Ellendale is located in Dickey County, North Dakota. It was initially designed for cryptocurrency mining operations. However, it is now being developed into an HPC facility as Applied Digital pivots to offer more AI-related services. This Facility will be part of Applied Digital's Ellendale campus.", "Status": "Planned - Expansion 2027", "Source": "https://baxtel.com/data-center/applied-digital-ellendale-bldg-3", "ObjectId": 39 }, "geometry": { "type": "Point", "coordinates": [ -98.530344469999989, 46.02151378 ] } },
{ "type": "Feature", "properties": { "Project_Name": "Aurum Capital Ventures Bismarck, ND", "Latitude": 46.806721, "Longitude": -100.725944, "Overview": "Aurum Capital Ventures, Inc. is looking to acquire land in Bismarck for a new data center. They are considering 300 acres of county-owned land in east Bismarck, located at the same address as the Buckstop Junction historical village. Additionally, Aurum is interested in purchasing several hundred acres of state-owned land situated just north of the county property.", "Status": "Land Bank ", "Source": "https://baxtel.com/data-center/aurum-bismarck-nd", "ObjectId": 40 }, "geometry": { "type": "Point", "coordinates": [ -100.725944, 46.806721 ] } },
{ "type": "Feature", "properties": { "Project_Name": "Applied Digital Polaris Forge 2 project, ND", "Latitude": 46.984271, "Longitude": -96.884176, "Overview": "AI data center firm Applied Digital, formerly a cryptomine company, has announced a new $3 billion data center campus called Polaris Forge 2 near Fargo, North Dakota. The 900-acre campus, located in Harwood, Cass County, will use Applied Digital's liquid-cooled design. Groundbreaking is scheduled for September 2025, with initial capacity expected in 2026. The two-building campus is projected to reach full capacity by early 2027. The project has already secured power from Cass County Electric Cooperative.", "Status": "Planned - Under Construction 2026 (Multi-phase) ", "Source": "https://baxtel.com/data-center/applied-digital-polaris-forge-2?lat=46.984090364481474&lng=-96.88403416719109&distance=69.14062541391611", "ObjectId": 41 }, "geometry": { "type": "Point", "coordinates": [ -96.884176, 46.984271 ] } },
{ "type": "Feature", "properties": { "Project_Name": "Enerfore: Pleasant Valley, ND", "Latitude": 48.283016, "Longitude": -102.91289, "Overview": "Enerfore Digital is building a data center in Dry Fork Township, Williams County, North Dakota. The facility will occupy 20,000 square feet (2,000 square meters) on a 10-acre site, dedicated to cryptomining operations. In October 2024, the company received approval to apply for a conditional use permit for the project. No date has been scheduled for the Williams County Planning and Zoning Commission to approve the proposal, but Enerfore is aiming for its data center to be operational in early 2025.", "Status": "Under Construction - 2025", "Source": "https://baxtel.com/data-center/enerfore-pleasant-valley-nd", "ObjectId": 42 }, "geometry": { "type": "Point", "coordinates": [ -102.91289, 48.283016 ] } },
{ "type": "Feature", "properties": { "Project_Name": "Teton Digital: Project Trinity Dry Fork Township, ND", "Latitude": 48.2533, "Longitude": -102.90867, "Overview": "Wyoming-based Teton Digital has received approval to develop a data center in North Dakota. Known as Project Trinity, the facility will be situated eight miles south of Tioga on a 25-acre portion of an 80-acre site in Dry Fork Township. The development will occur in two phases, with the first phase scheduled to become operational by the third or fourth quarter of 2025, utilizing existing power from a nearby substation. The second phase involves the construction of a 100MW+ substation in collaboration with local utility MWEC and the full completion of the data center by the end of 2026.", "Status": "Under Construction - 2025 (Muti-Phase)", "Source": "https://baxtel.com/data-center/teton-digital-dry-fork-township-nd", "ObjectId": 43 }, "geometry": { "type": "Point", "coordinates": [ -102.90867, 48.2533 ] } },
{ "type": "Feature", "properties": { "Project_Name": "Critical data house: Project Fighting Pike, Williston, ND", "Latitude": 48.230461, "Longitude": -103.632049, "Overview": "Under the codename Project Fighting Pike, Critical Data House (CDH) is developing a new 300-acre campus in Williams County. The development includes seven buildings, ranging from 275,000 to 500,000 sq ft (25,550 to 46,450 sqm). These facilities will utilize a closed-loop cooling system with direct-to-chip liquid cooling. Data center master plan submitted to City of Williston was approved on March 17 th , 2025. Construction is slated for Q2 2025 to Q4 2027, with the first phase involving two buildings. The full three-phase build-out is anticipated to take ten years, representing a potential investment of $5 billion by CDH, with an additional $5 billion for IT hardware. Two (2) pre-cast concrete partners standing by to begin work casting concrete tilt up walls. 300 laborers dedicated to this scope of work. Three (3) fiber carriers available to provide dark and lit fiber to Denver, Chicago, MSP, Lincoln and Omaha and Seattle. Pioneer power generation plant-600 megawatts-operating today. 300-megawatt power will serve letter in hand with an option to grow to 600 megawatts.", "Status": "Planned - Under Construction 2025-2027 (Muti-Phase)", "Source": "https://baxtel.com/data-center/project-fighting-pike", "ObjectId": 44 }, "geometry": { "type": "Point", "coordinates": [ -103.632049, 48.230461 ] } },
{ "type": "Feature", "properties": { "Project_Name": "Atlas Power, Williston, ND", "Latitude": 48.145818, "Longitude": -103.775091, "Overview": "Atlas Power is developing a $1.9 billion cryptocurrency mining facility in Williston, North Dakota. The project was announced in January 2022, with plans for a 700 MW capacity to be built in three phases. The Atlas facility currently consumes about 240 megawatts.", "Status": "Operating - Plans to expand ", "Source": "https://baxtel.com/data-center/atlas-power-williston-north-dakota", "ObjectId": 45 }, "geometry": { "type": "Point", "coordinates": [ -103.775091, 48.145818 ] } },
{ "type": "Feature", "properties": { "Project_Name": "Applied Digital Toronto, SD", "Latitude": 44.56647, "Longitude": -96.646173, "Overview": "Applied Digital is proposing a \"multi-billion-dollar\" AI data center development in South Dakota, east of Toronto. This ambitious project could attract up to $16 billion in investment and is expected to generate 200 high-paying jobs. The initial phase of the development involves constructing two buildings, each spanning 907,000 square feet (84,263 square meters). The project timeline estimates six to nine months for zoning and state-level approvals, followed by an 18 to 24-month construction period.", "Status": "Planned - 2028 (2 Phases)", "Source": "https://baxtel.com/data-center/applied-digital-toronto-sd?lat=44.57474551649311&lng=-96.64385989210282&distance=1679.313128622378", "ObjectId": 46 }, "geometry": { "type": "Point", "coordinates": [ -96.646173, 44.56647 ] } },
{ "type": "Feature", "properties": { "Project_Name": "Leola, SD", "Latitude": 45.700869, "Longitude": -99.037095, "Overview": "Currently South Dakota's largest proposed data center", "Status": "Planned", "Source": "https://puc.sd.gov/commission/dockets/electric/2024/EL24-027/EL24-027SummaryJudgment.pdf", "ObjectId": 47 }, "geometry": { "type": "Point", "coordinates": [ -99.037095, 45.700869 ] } },
{ "type": "Feature", "properties": { "Project_Name": "Apple Valley, MN", "Latitude": 44.7319, "Longitude": -93.21772, "Overview": "Property development firm Oppidan and Rockport LLC is proposing to build a technology park in Apple Valley in Dakota County, Minnesota. They would like to develop 7 buildings, on 1 million sq ft (92,900 sqm). 5 of the buildings are planned to be data centers.", "Status": "Planned - Propsed (Multi-phase for total of 5 buildings)", "Source": "https://www.datacenterdynamics.com/en/news/oppidan-proposes-data-center-campus-in-apple-valley-minnesota/", "ObjectId": 48 }, "geometry": { "type": "Point", "coordinates": [ -93.21772, 44.7319 ] } },
{ "type": "Feature", "properties": { "Project_Name": "AWS Becker, MN", "Latitude": 45.39366, "Longitude": -93.77031, "Overview": "Amazon has suspended plans for this data center in Becker, Minnesota. Site history: Amazon Data Services acquired 348 acres in Becker, Minnesota for $73.6 million to develop a data center project. The land was previously part of Xcel Energy Inc.'s Sherco Site. Amazon is proposing to install 250 diesel generators at its planned data center. The transaction involved several ownership changes: Elk River Technologies first purchased the parcel from Xcel Energy in April 2024 for $7.97 million, then sold it to Amazon—representing a substantial price increase in a short period. This development comes after earlier plans for the site fell through in 2022, when negotiations between Xcel Energy and Google for a potential data center project were unsuccessful. In February 2024, Microsoft bought 300 acres of land from Xcel nearby in Becker.", "Status": "Supsended", "Source": "https://baxtel.com/data-center/amazon-becker-mn", "ObjectId": 49 }, "geometry": { "type": "Point", "coordinates": [ -93.77031, 45.39366 ] } },
{ "type": "Feature", "properties": { "Project_Name": "Microsoft, Becker, MN", "Latitude": 45.39088385, "Longitude": -93.91063018, "Overview": "Microsoft has purchased land from Xcel Energy in Becker for a future data center. The tech giant bought about 295 acres in the city of Becker for about $17.7 million, according to public data from the Minnesota Department of Revenue.", "Status": "Land Bank ", "Source": "https://baxtel.com/data-center/microsoft-becker-mn", "ObjectId": 50 }, "geometry": { "type": "Point", "coordinates": [ -93.91063018, 45.39088385 ] } },
{ "type": "Feature", "properties": { "Project_Name": "Blue Earth, MN", "Latitude": 43.63758, "Longitude": -94.10239, "Overview": "Operated by AAIM, this data center is a 7.5MW site in Minnesota. ", "Status": "Operational as of recent 2025", "Source": "https://baxtel.com/data-center/aaim-minnesota https://www.datacenterdynamics.com/en/news/compass-mining-energizes-75mw-site-in-minnesota/", "ObjectId": 51 }, "geometry": { "type": "Point", "coordinates": [ -94.10239, 43.63758 ] } },
{ "type": "Feature", "properties": { "Project_Name": "Cannon Falls, MN", "Latitude": 44.50691, "Longitude": -92.90548, "Overview": "Tract is planning to build a massive data center campus, with two data centers in Randolph Township, Minnesota.", "Status": "Planned", "Source": "https://baxtel.com/data-center/tract-cannon-falls", "ObjectId": 52 }, "geometry": { "type": "Point", "coordinates": [ -92.90548, 44.50691 ] } },
{ "type": "Feature", "properties": { "Project_Name": "Chaska, MN", "Latitude": 44.78934, "Longitude": -93.60183, "Overview": "The company plans to invest a total of $1 billion in the new Chaska center for a total of 1.4 million sqft. The building will have a footprint of 713,000 square feet and, at its highest point, be 72 feet tall. A 30-foot-tall berm will wrap around the northern and eastern side of the site, helping separate the building from residential areas.", "Status": "Planned ", "Source": "https://baxtel.com/data-center/cloudhq-chaska-mn", "ObjectId": 53 }, "geometry": { "type": "Point", "coordinates": [ -93.60183, 44.78934 ] } },
{ "type": "Feature", "properties": { "Project_Name": "Eagan, MN", "Latitude": 44.80413, "Longitude": -93.16688, "Overview": "CLOP Eagan MN, LLC, with involvement from Oppidan, is developing a 61,000 square foot data center on a 22.1-acre portion of YMCA-owned land on Opperman Drive in Eagan, Minnesota. The project, on land subdivided in the early 1990s, has begun construction in June 2025, with full operation expected by December 2026. Oppidan lists Connect Data Centers as a subsidiary", "Status": "Planned - Approved by planning commission", "Source": "https://baxtel.com/data-center/connect-data-centers-eagan-mn", "ObjectId": 54 }, "geometry": { "type": "Point", "coordinates": [ -93.16688, 44.80413 ] } },
{ "type": "Feature", "properties": { "Project_Name": "Archer: Faribault, MN", "Latitude": 44.29496, "Longitude": -93.26882, "Overview": "Archer Datacenters has expanded its footprint in Minnesota, securing an expansive 87.6-acre property in Faribault for $4.5 million. The land, purchased from local firm PK LaRoche LLP, is set to become a significant data center development site. The company's conceptual plan involves constructing up to six buildings, with each facility ranging from 44,000 to 107,000 square feet. When fully developed, the site will offer approximately 500,000 square feet of single-story data center capacity, powered by an on-site electrical substation.", "Status": "Land Bank ", "Source": "https://baxtel.com/data-center/archer-minneapolis-mn", "ObjectId": 55 }, "geometry": { "type": "Point", "coordinates": [ -93.26882, 44.29496 ] } },
{ "type": "Feature", "properties": { "Project_Name": "Farmington, MN", "Latitude": 44.64024, "Longitude": -93.14354, "Overview": "Tract is pursuing plans for a $5 billion data center development at the Farmington Technology Park in Dakota County, Minnesota. The proposal encompasses 343 acres, including the Fountain Valley Golf Club property. Despite objections from some residents, the Farmington City Council voted to approve the final plat and planned unit development on November 18, 2024. The proposed site plan envisions up to 12 data center buildings spanning more than 2.5 million square feet, along with two administrative buildings.", "Status": "Planned - 2027", "Source": "https://baxtel.com/data-center/tract-farmington-campus", "ObjectId": 56 }, "geometry": { "type": "Point", "coordinates": [ -93.14354, 44.64024 ] } },
{ "type": "Feature", "properties": { "Project_Name": "Connect Data Centers: Hampton, MN", "Latitude": 44.605741, "Longitude": -92.989465, "Overview": "Oppidan plans to build a large technology park on approximately 140 acres in Hampton, Minnesota. Oppidan lists Connect Data Centers as a subsidiary focused on data center development.", "Status": "Planned - Proposal ", "Source": "https://baxtel.com/data-center/connect-data-centers-hampton-campus", "ObjectId": 57 }, "geometry": { "type": "Point", "coordinates": [ -92.989465, 44.605741 ] } },
{ "type": "Feature", "properties": { "Project_Name": "Hermantown, MN", "Latitude": 46.776002, "Longitude": -92.285787, "Overview": "The \"Alternative Urban Area Review\" document was unanimously approved by Hermantown's City council on Oct 6th 2025. the facility will consist of four buildings located on a 403-acre parcel bounded to the north by Morris Thomas Road, to the east by Midway Road, and to the west by Solway Road.", "Status": "Planned ", "Source": "https://www.datacenterdynamics.com/en/news/data-center-could-come-to-hermantown-minnesota/", "ObjectId": 58 }, "geometry": { "type": "Point", "coordinates": [ -92.285787, 46.776002 ] } },
{ "type": "Feature", "properties": { "Project_Name": "Pine Island, MN", "Latitude": 44.226908, "Longitude": -92.646166, "Overview": "This site is a proposed 482-acre large scale data center being considered for Pine Island, MN. Currently (Oct 2025) it is facing major public opposition.", "Status": "Planned - Proposal", "Source": "https://www.kaaltv.com/news/residents-express-concern-over-costs-impacts-of-proposed-large-scale-data-center-in-pine-island/", "ObjectId": 59 }, "geometry": { "type": "Point", "coordinates": [ -92.646166, 44.226908 ] } },
{ "type": "Feature", "properties": { "Project_Name": "Tract: Rosemount, MN", "Latitude": 44.73941, "Longitude": -93.12577, "Overview": "Tract is a data center park developer, who is seeking a second sight next to it's farmington campus in Dakota county, MN. Farmington Data campus to be mapped soon.", "Status": "Planned", "Source": "https://www.datacenterdynamics.com/en/news/tract-plans-second-minnesota-data-center-park-outside-minneapolis/ https://baxtel.com/data-center/tract-farmington-campus", "ObjectId": 60 }, "geometry": { "type": "Point", "coordinates": [ -93.12577, 44.73941 ] } },
{ "type": "Feature", "properties": { "Project_Name": "Meta: Rosemont, MN", "Latitude": 44.744809, "Longitude": -93.062916, "Overview": "Meta, the parent company of Facebook, announced it will build an $800 million data center in Rosemount. Minnesota. The investment will see the 715,000-square-foot data center open on 280 acres east of Dakota County Technical College, on part of the University of Minnesota's UMore Park.", "Status": null, "Source": "https://baxtel.com/data-center/facebook-rosemount-mn-proposed", "ObjectId": 61 }, "geometry": { "type": "Point", "coordinates": [ -93.062916, 44.744809 ] } },
{ "type": "Feature", "properties": { "Project_Name": "Meta: Rosemount 2, MN", "Latitude": 44.73941, "Longitude": -93.07577, "Overview": "Meta Platforms Inc., through its subsidiary Jimnist LLC, has acquired over 200 acres of land in Rosemount located along County Road 42 and Blaine Avenue in February 2025. The $70 million purchase consisted of two parcels: one for $26.68 million and another for $43.32 million. While Meta currently has no specific development plans for the property, the company made the acquisition proactively to accommodate potential future business needs.", "Status": "Land Bank ", "Source": "https://baxtel.com/data-center/meta-rosemount-ii-campus", "ObjectId": 62 }, "geometry": { "type": "Point", "coordinates": [ -93.07577, 44.73941 ] } },
{ "type": "Feature", "properties": { "Project_Name": "Connect Data Centers: North Mankato, MN", "Latitude": 44.184439, "Longitude": -94.052998, "Overview": "Oppidan plans to build a data center in North Mankato, Minnesota.They also plan on expanding ", "Status": "Planned - Proposal ", "Source": "https://baxtel.com/data-center/connect-data-centers-north-mankato", "ObjectId": 63 }, "geometry": { "type": "Point", "coordinates": [ -94.052998, 44.184439 ] } },
{ "type": "Feature", "properties": { "Project_Name": "Central Wisconsin, WI", "Latitude": 43.782714, "Longitude": -88.792703, "Overview": "Meta intends to invest up to $837 million over several years to construct a data center in central Wisconsin. The company reportedly secured a unique agreement with the state in February, operating under an alias during the negotiation.", "Status": "Planned - 2028", "Source": "https://baxtel.com/data-center/meta-wisconsin-campus", "ObjectId": 64 }, "geometry": { "type": "Point", "coordinates": [ -88.792703, 43.782714 ] } },
{ "type": "Feature", "properties": { "Project_Name": "Mt. Pleasant, WI", "Latitude": 42.72659, "Longitude": -87.89498, "Overview": "Microsoft has completed the purchase of an additional 1,030 acres of land for its Mount Pleasant data center campus in Racine County, Wisconsin. The 400 acres on Braun Road and Durand Avenue were purchased from the Village of Mount Pleasant for $63.2m, and 241 acres along County Highway H for $36.5m. The remaining 407 acres, also on Braun Road and Durand Avenue, were purchased from Creuziger Farms Inc. for $76m. Much of the land purchased was previously owned by Foxconn, which bought the parcel in 2017 intending to develop a manufacturing facility that would provide 10,000 jobs to the area. Foxconn ultimately only brought 1,454 jobs to the region.", "Status": "Phase 2 paused, Phase 1 construction continuing on schedule", "Source": "https://rcedc.org/expansion-of-microsoft-datacenter-in-racine-county/", "ObjectId": 65 }, "geometry": { "type": "Point", "coordinates": [ -87.89498, 42.72659 ] } },
{ "type": "Feature", "properties": { "Project_Name": "Microsoft: Kenosha, WI", "Latitude": 42.528947, "Longitude": -87.969244, "Overview": "Microsoft has acquired 240 additional acres in Wisconsin for data centers, near its Mount Pleasant project that was paused in early 2025. The company previously announced a $3.3 billion investment commitment in Wisconsin through 2026. In November 2024, plans were filed for a four-building data center campus on this land, though Microsoft hasn't confirmed specific details.", "Status": "Land Bank ", "Source": "https://baxtel.com/data-center/microsoft-kenosha-wi https://www.datacenterdynamics.com/en/news/microsoft-acquires-240-acres-in-kenosha-wisconsin-for-data-center-development/", "ObjectId": 66 }, "geometry": { "type": "Point", "coordinates": [ -87.969244, 42.528947 ] } },
{ "type": "Feature", "properties": { "Project_Name": "Wisconsin Rapids, WI", "Latitude": 44.38357, "Longitude": -89.81734, "Overview": "Digital Power Optimization (DPO), a US-based crypto and data center developer, will build a $200 million high-performance computing facility in Wisconsin Rapids, Wisconsin. DPO has secured land and power through a 50-year lease and partnership with Consolidated Water Power Company (CWPCo), a Billerud subsidiary, including interconnection rights to an existing substation and a firm power supply. The facility is expected to be operational in 2026.", "Status": "Under Constrction: 2026", "Source": "https://baxtel.com/data-center/dpo-wisconsin-rapids", "ObjectId": 67 }, "geometry": { "type": "Point", "coordinates": [ -89.81734, 44.38357 ] } },
{ "type": "Feature", "properties": { "Project_Name": "Beaver Dam, WI", "Latitude": 43.45776, "Longitude": -88.83732, "Overview": "A developer operating through Degas LLC is planning a major data center campus in Dodge County, Wisconsin. The proposed $567 million project would be located in Beaver Dam, approximately 60 miles northwest of Milwaukee. The development would occupy the 520-acre site formerly known as Beaver Dam Commerce Park, which is situated along US Highway 151, Hemlock Road, and County Highways A and W. The property is currently listed for sale at $20,000 per acre.", "Status": "Development agreement approved", "Source": "https://baxtel.com/data-center/beaver-dam-commerce-park https://www.wpr.org/wp-content/uploads/2025/01/BeaverDamParkSpecSheet.pdf", "ObjectId": 68 }, "geometry": { "type": "Point", "coordinates": [ -88.83732, 43.45776 ] } },
{ "type": "Feature", "properties": { "Project_Name": "Wyandotte County, KS", "Latitude": 39.1332, "Longitude": -94.879329, "Overview": "Red Wolf DCD Properties LLC has confirmed plans to build a 400 acre data center campus. The project aims to develop a six-building campus, totaling some 600MW across 1.8 million sq ft, as well as two on-site substations. - Data Center Dynamics", "Status": "Planned - Proposed", "Source": "https://www.datacenterdynamics.com/en/news/600mw-data-center-campus-proposed-outside-kansas-city-kansas/", "ObjectId": 69 }, "geometry": { "type": "Point", "coordinates": [ -94.879329, 39.1332 ] } },
{ "type": "Feature", "properties": { "Project_Name": "New Century, KS", "Latitude": 38.835793, "Longitude": -94.874535, "Overview": "QTS, a Blackstone-owned firm, is expanding its data center footprint in the Kansas City area. The company has leased a substantial 756,000 square foot (70,234 sqm) facility, identified as Building B1, within the New Century Commerce Center (NCCC) in New Century, Kansas. This location in Johnson County places the future data center roughly 25 miles southwest of Kansas City. The newly constructed building, completed in 2023 by Van Trust Real Estate LLC, will be transformed into a state-of-the-art data center, although specific details regarding its specifications have not yet been disclosed. The NCCC itself is envisioned as a significant regional industrial park, benefiting from its strategic adjacency to the New Century Airfield, which provides valuable logistical benefits.", "Status": "Leased a building ", "Source": "https://baxtel.com/data-center/qts-new-century-commerce-center", "ObjectId": 70 }, "geometry": { "type": "Point", "coordinates": [ -94.874535, 38.835793 ] } },
{ "type": "Feature", "properties": { "Project_Name": "Project Blue", "Latitude": 32.056518, "Longitude": -110.783563, "Overview": "Amazon Web Services (AWS) is planning a major data center campus in Tucson, Arizona, for a project codenamed \"Project Blue.\" The development is a 290-acre site that will reportedly host at least three data centers, with some sources suggesting as many as 10 buildings are planned. These buildings could span a total of 2 million square feet. Construction on the first phase is scheduled to begin in 2026 and finish by 2029, with the first data centers potentially becoming operational in 2027.", "Status": "Planned -  The Arizona Corporation Commission will vote on the agreement between Tuscon Electric power Oct 23, 2025", "Source": "https://baxtel.com/data-center/amazon-project-blue", "ObjectId": 71 }, "geometry": { "type": "Point", "coordinates": [ -110.783563, 32.056518 ] } },
{ "type": "Feature", "properties": { "Project_Name": "Tuson TECHfusions", "Latitude": 32.173448, "Longitude": -110.913414, "Overview": "Carter Funds' critical infrastructure and data center division, Aphorio Carter Fund Management Company, LLC, expanded its portfolio in 2023 with the acquisition of the Tucson Tech Data Center. Located on an eight-acre site in Pima County, Arizona, the 133,450 sq ft (12,400 sqm) facility includes 40,790 sq ft (3,790 sqm) of raised floor space and is fully leased to TECfusions. Originally constructed in 1989, the building began its development into a data center in 2004.", "Status": "Planned -  The Arizona Corporation Commission will vote on the agreement between Tuscon Electric power", "Source": "https://baxtel.com/data-center/tecfusions-tucson-az", "ObjectId": 72 }, "geometry": { "type": "Point", "coordinates": [ -110.913414, 32.173448 ] } },
{ "type": "Feature", "properties": { "Project_Name": "Ryan Companies", "Latitude": 32.775909, "Longitude": -111.60076, "Overview": "Ryan Companies plans to invest over $470 million to develop the Southwest Crossing Data Center, a 1.25 million square foot (116,130 square meter) campus. The real estate firm is working to rezone a planned warehouse site from General Industrial to General Industrial with a Planned Area Development Overlay to accommodate this data center project. On January 15, 2025, the Eloy Planning and Zoning Commission recommended approval for this rezoning request. The development will include up to three buildings, each measuring 285,120 square feet (26,490 square meters), complemented by on-site substations. ", "Status": "Planned", "Source": "https://baxtel.com/data-center/ryan-companies-southwest-crossing?lat=32.77602231496838&lng=-111.59773742764501&distance=901.8948197794883", "ObjectId": 73 }, "geometry": { "type": "Point", "coordinates": [ -111.60076, 32.775909 ] } },
{ "type": "Feature", "properties": { "Project_Name": "La Osa Project", "Latitude": 32.676091, "Longitude": -111.544559, "Overview": "Company Vermaland dubbed the La Osa Project, the potential facility would be located in Pinal County on a 3,300-acre site south of Eloy, which is a city in between Phoenix and Tucson. The land parcel is located along the Greene Canal. Vermaland filed a rezoning application for the site back in July, according to Data center Dynamics.", "Status": "Planned - Proposed Aug 2025", "Source": "https://www.datacenterdynamics.com/en/news/?tag=la-osa-project", "ObjectId": 74 }, "geometry": { "type": "Point", "coordinates": [ -111.544559, 32.676091 ] } },
{ "type": "Feature", "properties": { "Project_Name": "Arizona land consulting: Casa Grande", "Latitude": 32.891452, "Longitude": -111.692857, "Overview": "A 600-acre site in Pinal County, strategically located along I-10/Florence and dubbed the “Gateway into Casa Grande,” was acquired by Arizona Land Consulting. This property is poised for development into a mixed-use facility, with a portion dedicated to data center infrastructure alongside build-for-rent housing, light industrial, and commercial/retail components.", "Status": "Operational - Planned expansion (Land Bank)", "Source": "https://baxtel.com/data-center/arizona-land-casa-grande", "ObjectId": 75 }, "geometry": { "type": "Point", "coordinates": [ -111.692857, 32.891452 ] } },
{ "type": "Feature", "properties": { "Project_Name": "NTT Pacific 1", "Latitude": 33.297341, "Longitude": -111.610922, "Overview": "NTT Data has acquired 173 acres at the northeast intersection of Pecos and Crismon roads, east of Mesa, for $300 million. The company intends to develop a data center campus comprising seven buildings, with the first facility slated for operation by November 2028. The land was previously held by Levine Investments and Andrew Cohn through Mesa BA Land and Pacific Proving LLC. This group originally purchased 1,805 acres for $45 million in 2004. In September 2024, Levine, operating through Pacific Proving, received approval for the Pacific Proving Technology Campus. Plans for the Pacific Proving Technology campus include the construction of seven data halls offering nearly 1.7 million square feet (157,935 square meters) of total floor space, in addition to a 100,000-square-foot warehouse and a two-story office building.", "Status": "Planned - 2028", "Source": "https://baxtel.com/data-center/ntt-pacific-proving-tech-park", "ObjectId": 76 }, "geometry": { "type": "Point", "coordinates": [ -111.610922, 33.297341 ] } },
{ "type": "Feature", "properties": { "Project_Name": "NTT Pacific 2", "Latitude": 33.295943, "Longitude": -111.611047, "Overview": "This planned facility will be part of NTT's Pacific Proving Technology Park located in Mesa, Arizona.", "Status": "Planned - 2029", "Source": "https://baxtel.com/data-center/ntt-pacific-2", "ObjectId": 77 }, "geometry": { "type": "Point", "coordinates": [ -111.611047, 33.295943 ] } },
{ "type": "Feature", "properties": { "Project_Name": "NTT Pacific 3", "Latitude": 33.294253, "Longitude": -111.611147, "Overview": "This planned facility will be part of NTT's Pacific Proving Technology Park located in Mesa, Arizona.", "Status": "Planned - 2030", "Source": "https://baxtel.com/data-center/ntt-pacific-3", "ObjectId": 78 }, "geometry": { "type": "Point", "coordinates": [ -111.611147, 33.294253 ] } },
{ "type": "Feature", "properties": { "Project_Name": "NTT Pacific 4", "Latitude": 33.298301, "Longitude": -111.614717, "Overview": "This planned facility will be part of NTT's Pacific Proving Technology Park located in Mesa, Arizona.", "Status": "Planned - 2031", "Source": "https://baxtel.com/data-center/ntt-pacific-4", "ObjectId": 79 }, "geometry": { "type": "Point", "coordinates": [ -111.614717, 33.298301 ] } },
{ "type": "Feature", "properties": { "Project_Name": "NTT Pacific 5", "Latitude": 33.296787, "Longitude": -111.61527, "Overview": "This planned facility will be part of NTT's Pacific Proving Technology Park located in Mesa, Arizona.", "Status": "Planned - 2032", "Source": "https://baxtel.com/data-center/ntt-pacific-5", "ObjectId": 80 }, "geometry": { "type": "Point", "coordinates": [ -111.61527, 33.296787 ] } },
{ "type": "Feature", "properties": { "Project_Name": "NTT Pacific 6", "Latitude": 33.295116, "Longitude": -111.61527, "Overview": "This planned facility will be part of NTT's Pacific Proving Technology Park located in Mesa, Arizona.", "Status": "Planned 2033", "Source": "https://baxtel.com/data-center/ntt-pacific-6", "ObjectId": 81 }, "geometry": { "type": "Point", "coordinates": [ -111.61527, 33.295116 ] } },
{ "type": "Feature", "properties": { "Project_Name": "NTT Pacific 7", "Latitude": 33.293856, "Longitude": -111.615434, "Overview": "This planned facility will be part of NTT's Pacific Proving Technology Park located in Mesa, Arizona.", "Status": "Planned - 2034", "Source": "https://baxtel.com/data-center/ntt-pacific-7", "ObjectId": 82 }, "geometry": { "type": "Point", "coordinates": [ -111.615434, 33.293856 ] } },
{ "type": "Feature", "properties": { "Project_Name": "Project Juniper New Mexico", "Latitude": 31.819076, "Longitude": -106.677837, "Overview": "OpenAI and Oracle are partnering to build the $165 billion Project Jupiter data center in Santa Teresa, New Mexico, near El Paso as part of OpenAI’s massive Stargate Project  – aiming to spend half a trillion dollars this decade on infrastructure that enables artificial intelligence technology. - El Paso Matters", "Status": null, "Source": "https://elpasomatters.org/2025/09/25/stargate-open-ai-oracle-project-jupiter-data-center-dona-ana-new-mexico-el-paso-texas/", "ObjectId": 83 }, "geometry": { "type": "Point", "coordinates": [ -106.677837, 31.819076 ] } },
{ "type": "Feature", "properties": { "Project_Name": "Novva Mesa campus 1", "Latitude": 33.341402, "Longitude": -111.637703, "Overview": "Covering 160 acres, Novva’s first Arizona Data Center campus is located in Mesa, AZ. The campus includes five data halls, 1.3 million sq ft of data hall space, and 200,000 square feet of office space built over 2 phases. The Plan is also known as \"Project Borealis\". Novva predicts the project will take 10 million human hours to construct, and the first phase, will launch in late 2026. The data center provider will invest more than $3 billion to build the campus in two phases over the next decade.", "Status": "Planned 2026 - Under Construction", "Source": "https://baxtel.com/data-center/novva-mesa-campus", "ObjectId": 84 }, "geometry": { "type": "Point", "coordinates": [ -111.637703, 33.341402 ] } },
{ "type": "Feature", "properties": { "Project_Name": "Novva Mesa 2", "Latitude": 33.33894, "Longitude": -111.63766, "Overview": "Covering 160 acres, Novva’s first Arizona Data Center campus is located in Mesa, AZ. The campus includes five data halls, 1.3 million sq ft of data hall space, and 200,000 square feet of office space built over 2 phases. The Plan is also known as \"Project Borealis\". Novva predicts the project will take 10 million human hours to construct, and the first phase, will launch in late 2026. The data center provider will invest more than $3 billion to build the campus in two phases over the next decade.", "Status": "Planned 2026 - Under Construction", "Source": "https://baxtel.com/data-center/novva-mesa-2", "ObjectId": 85 }, "geometry": { "type": "Point", "coordinates": [ -111.63766, 33.33894 ] } },
{ "type": "Feature", "properties": { "Project_Name": "Novva Mesa 3", "Latitude": 33.337492, "Longitude": -111.64104, "Overview": "This building is a part of Novva's Mesa campus in Arizona.", "Status": "Planned - 2028", "Source": "https://baxtel.com/data-center/novva-mesa-3", "ObjectId": 86 }, "geometry": { "type": "Point", "coordinates": [ -111.64104, 33.337492 ] } },
{ "type": "Feature", "properties": { "Project_Name": "Novva Mesa 4", "Latitude": 33.33894, "Longitude": -111.64091, "Overview": "This building is a part of Novva's Mesa campus in Arizona.", "Status": "Planned - 2028", "Source": "https://baxtel.com/data-center/novva-mesa-4", "ObjectId": 87 }, "geometry": { "type": "Point", "coordinates": [ -111.64091, 33.33894 ] } },
{ "type": "Feature", "properties": { "Project_Name": "Novva Mesa 5", "Latitude": 33.341293, "Longitude": -111.64117, "Overview": "This building is a part of Novva's Mesa campus in Arizona.", "Status": "Planned -  2030", "Source": "https://baxtel.com/data-center/novva-mesa-5", "ObjectId": 88 }, "geometry": { "type": "Point", "coordinates": [ -111.64117, 33.341293 ] } },
{ "type": "Feature", "properties": { "Project_Name": "AWS Pecos campus, mesa", "Latitude": 33.29563, "Longitude": -111.606978, "Overview": "Amazon.com Inc. is working on two separate data center projects in southeast Mesa, with each project containing two 227,000-square-foot data center buildings. The Pecos Campus, which spans 71.3 acres, is located at 10464 E. Pecos Road, just east of the Legacy Park sports complex. The other site is a 42.9-acre property located off Elliot Road, adjacent to Apple's existing data center in Mesa. Amazon acquired both properties in December 2021, paying $16.9 million for the Elliot Road land and over $18 million for the Pecos Road site. ", "Status": "Planned 2026 - Under Construction", "Source": "https://baxtel.com/data-center/amazon-pecos-campus-mesa", "ObjectId": 89 }, "geometry": { "type": "Point", "coordinates": [ -111.606978, 33.29563 ] } },
{ "type": "Feature", "properties": { "Project_Name": "AWS Elliot Campus", "Latitude": 33.348463, "Longitude": -111.61269, "Overview": "Amazon.com Inc. looks to be getting closer to starting construction on two separate data center projects in southeast Mesa.The tech giant has submitted plans for two separate sites in Mesa, each containing two 227,000 sqft data center buildings. The Elliot campus is a 42.9-acre property located off Elliot Road, adjacent to Apple's existing data center in Mesa. The other site spans 71.3 acres at 10464 E. Pecos Road, just east of the Legacy Park sports complex. Amazon acquired both Mesa properties in December 2021, paying $16.9 million for the Elliot Road land and over $18 million for the Pecos Road site.", "Status": "Planned - 2026", "Source": "https://baxtel.com/data-center/amazon-elliot-campus-mesa", "ObjectId": 90 }, "geometry": { "type": "Point", "coordinates": [ -111.61269, 33.348463 ] } },
{ "type": "Feature", "properties": { "Project_Name": "AWS Dobbins Campus", "Latitude": 33.365029, "Longitude": -112.197131, "Overview": "Amazon Data Services has acquired land for a potential data center campus in Laveen, Phoenix. The 220-acre site, located near Loop 202 and Dobbins Road, was purchased for $277 million ($1.2 million per acre). The property, situated 20 minutes west of downtown Phoenix, lies within a planned industrial corridor intended for technology development. The area had previously attracted interest from TSMC as a possible location for their manufacturing facility.", "Status": "Land Bank - Planned 2028", "Source": "https://baxtel.com/data-center/amazon-dobbins-campus", "ObjectId": 91 }, "geometry": { "type": "Point", "coordinates": [ -112.197131, 33.365029 ] } },
{ "type": "Feature", "properties": { "Project_Name": "AWS Gilroy 1", "Latitude": 37.017329, "Longitude": -121.558067, "Overview": "Amazon is planning to build a data center campus on a 56-acre plot along highway 101, between Leavesly Road and Gilman Road in the City of Gilroy, California. The company paid $31.3 million for the plot in 2020 from local developers.The site would be developed in two phases. Phase I would include the first single-story data center building totaling approximately 218,000 square feet (20,250 sq m) and 25 diesel generators. Phase II, constructed within 4-7 years would consist of the second single-story data center building and as yet undetermined ‘alternative backup generation technologies’ to avoid the use of diesel-fired generators. The company said the facilities would have an average PUE of 1.18.", "Status": "Planned ", "Source": "https://baxtel.com/data-center/amazon-gilroy-ca", "ObjectId": 92 }, "geometry": { "type": "Point", "coordinates": [ -121.558067, 37.017329 ] } },
{ "type": "Feature", "properties": { "Project_Name": "AWS Gilroy 2", "Latitude": 37.017861, "Longitude": -121.556467, "Overview": "Amazon is planning to build a data center campus on a 56-acre plot along highway 101, between Leavesly Road and Gilman Road in the City of Gilroy, California. The company paid $31.3 million for the plot in 2020 from local developers.The site would be developed in two phases. Phase I would include the first single-story data center building totaling approximately 218,000 square feet (20,250 sq m) and 25 diesel generators. Phase II, constructed within 4-7 years would consist of the second single-story data center building and as yet undetermined ‘alternative backup generation technologies’ to avoid the use of diesel-fired generators. The company said the facilities would have an average PUE of 1.18.", "Status": "Planned", "Source": "https://baxtel.com/data-center/amazon-gilroy-bldg-2", "ObjectId": 93 }, "geometry": { "type": "Point", "coordinates": [ -121.556467, 37.017861 ] } },
{ "type": "Feature", "properties": { "Project_Name": "AWS 2305 Mission Bldg B", "Latitude": 37.389824, "Longitude": -121.967328, "Overview": "This planned facility will be a part of Amazon's 2305 Mission College Blvd Campus. The data center will span 229,974 sqft (21,365 sq m) of space.", "Status": "Planned - 2026", "Source": "https://baxtel.com/data-center/amazon-2305-mission-bldg-b", "ObjectId": 94 }, "geometry": { "type": "Point", "coordinates": [ -121.967328, 37.389824 ] } },
{ "type": "Feature", "properties": { "Project_Name": "AWS Arlington", "Latitude": 45.716827, "Longitude": -120.202175, "Overview": "Amazon Web Services (AWS) is securing over 400 acres in Arlington, Oregon, for a future data center campus, adding to their existing Oregon data centers in Morrow and Umatilla counties. The project involves purchasing 376 acres in 2024 ($10M) and an additional 30 acres in 2025 ($3M). Operation is years away due to permits, electricity, and tax break negotiations. Arlington and the port have been preparing the land for over a decade.", "Status": "Land Bank ", "Source": "https://baxtel.com/data-center/amazon-arlington", "ObjectId": 95 }, "geometry": { "type": "Point", "coordinates": [ -120.202175, 45.716827 ] } },
{ "type": "Feature", "properties": { "Project_Name": "Google Mesa (Red Hawk 1) Arizona", "Latitude": 33.351287, "Longitude": -111.671866, "Overview": "Google signed a 25-year government property lease excise tax, or GPLET, with the city of Mesa in July 2019 to assist in purchasing the more than 185 acres for the data center campus. The GPLET agreement put Google on the clock to complete the construction of the first phase of the data center by July 2025. Per a development agreement with Mesa, Google must also spend $600 million in capital expenditures. By 2027, Google must spend $800 million, with $240 million in taxable construction and have constructed at least 500,000 square feet of development. By 2029, those figures jump to a minimum spend of $1 billion, $300 million in taxable construction costs and at least 750,000 square feet of development built out.The entire project is expected to be finished in 2030. Google is also required to have an average annual salary for full-time data center employees of at least $65,000.", "Status": "Under Construction", "Source": "https://baxtel.com/data-center/google-mesa-redhawk-1", "ObjectId": 96 }, "geometry": { "type": "Point", "coordinates": [ -111.671866, 33.351287 ] } },
{ "type": "Feature", "properties": { "Project_Name": "Google Mesa (Red Hawk 2) Arizona", "Latitude": 33.351365, "Longitude": -111.673097, "Overview": "This facility will be a part of Google's Redhawk campus in Mesa, AZ. Phase II is expected to see Google build 280,000 square feet more. The plans also include facilities to house its electrical components and office space. The site takes up 185 acres near the northwest corner of Sossaman and Elliot roads. The facility will be powered by 400MW of power which will come from solar and wind farms in the state.", "Status": "Planned - Expansion", "Source": "https://baxtel.com/data-center/google-mesa-redhawk-2", "ObjectId": 97 }, "geometry": { "type": "Point", "coordinates": [ -111.673097, 33.351365 ] } },
{ "type": "Feature", "properties": { "Project_Name": "Google Mesa (Red Hawk 3) Arizona", "Latitude": 33.352342, "Longitude": -111.673066, "Overview": "This facility will be a part of Google's Redhawk campus in Mesa, AZ.", "Status": "Planned - Expansion 2029", "Source": "https://baxtel.com/data-center/google-mesa-redhawk-3", "ObjectId": 98 }, "geometry": { "type": "Point", "coordinates": [ -111.673066, 33.352342 ] } },
{ "type": "Feature", "properties": { "Project_Name": "Microsoft Azure, Fernley NV", "Latitude": 39.618455, "Longitude": -119.190991, "Overview": "Microsoft acquired 300.7 acres from Mark IV Capital within the 4,300-acre Victory Logistics District, a master-planned industrial hub located in Fernley, Nevada. The site offers access to reliable power infrastructure, service from multiple fiber optic providers, and scalable land options.", "Status": "Land Bank ", "Source": "https://baxtel.com/data-center/microsoft-reno-nv", "ObjectId": 99 }, "geometry": { "type": "Point", "coordinates": [ -119.190991, 39.618455 ] } },
{ "type": "Feature", "properties": { "Project_Name": "Apple: 21675 Reno, NV", "Latitude": 39.574045, "Longitude": -119.534471, "Overview": "Apple has acquired 470 acres of land next to its Reno data center campus for future developments.", "Status": "Planned - 2028", "Source": "https://baxtel.com/data-center/apple-21675-reno", "ObjectId": 100 }, "geometry": { "type": "Point", "coordinates": [ -119.534471, 39.574045 ] } },
{ "type": "Feature", "properties": { "Project_Name": "Apple: 21100 Interstate, NV", "Latitude": 39.565347, "Longitude": -119.553275, "Overview": "Apple has acquired 147 acres of land next to its Reno data center campus for future developments.", "Status": "Planned - 2027", "Source": "https://baxtel.com/data-center/apple-21100-interstate", "ObjectId": 101 }, "geometry": { "type": "Point", "coordinates": [ -119.553275, 39.565347 ] } },
{ "type": "Feature", "properties": { "Project_Name": "Benton Township, Michigan", "Latitude": 42.1307, "Longitude": -86.40782, "Overview": "The Herald-Palladium reported that plans to build a $3 billion data center project have been delayed. An unknown company was looking to build an ‘AI data center’ on 280 acres on Yore Avenue near Lake Michigan College.", "Status": "Stalled", "Source": "https://baxtel.com/data-center/benton-harbor-proposed https://www.heraldpalladium.com/communities/benton_harbor/report-data-center-delayed-in-benton-township/article_7671fcb2-edc6-507b-94b1-8bb20c75d76c.html", "ObjectId": 102 }, "geometry": { "type": "Point", "coordinates": [ -86.40782, 42.1307 ] } },
{ "type": "Feature", "properties": { "Project_Name": "Microsoft Grand Rapids Campus, Gaines Township, Michigan", "Latitude": 42.79983, "Longitude": -85.42292, "Overview": "Microsoft Corp. has purchased 316 acres in southern Kent County from Steelcase Inc. for $45.3 million for a potential data center development.", "Status": "Land Bank", "Source": "https://baxtel.com/data-center/microsoft-grand-rapids-campus", "ObjectId": 103 }, "geometry": { "type": "Point", "coordinates": [ -85.42292, 42.79983 ] } },
{ "type": "Feature", "properties": { "Project_Name": "Microsoft Dorr 1, Allegan County, Michigan", "Latitude": 42.741047, "Longitude": -85.702508, "Overview": "In 2024, Microsoft acquired a 128-acre property in Dorr Township, Allegan County, located along U.S. 131 at 144th Avenue.", "Status": "Land Bank - Planned 2028", "Source": "https://baxtel.com/data-center/microsoft-dorr-1", "ObjectId": 104 }, "geometry": { "type": "Point", "coordinates": [ -85.702508, 42.741047 ] } },
{ "type": "Feature", "properties": { "Project_Name": "Microsoft Dorr 2, Allegan County, Michigan", "Latitude": 42.756327, "Longitude": -85.702992, "Overview": "In 2024, Microsoft acquired a 144-acre property in Dorr Township, Allegan County, located along U.S. 131 at 14th st.", "Status": null, "Source": "https://baxtel.com/data-center/microsoft-dorr-2", "ObjectId": 105 }, "geometry": { "type": "Point", "coordinates": [ -85.702992, 42.756327 ] } },
{ "type": "Feature", "properties": { "Project_Name": "Switch Pyramid 3 Gaines Township, Michigan", "Latitude": 42.79983, "Longitude": -85.62292, "Overview": "Switch is planning second expansion of its data center campus in Grand Rapids, Michigan. Construction of a third data center building on the site is expected to begin \"sooner rather than later,\" with the investment projected to be \"several hundred million dollars.\"", "Status": "Expansion - Under Construction, Planned 2026", "Source": "https://www.datacenterdynamics.com/en/news/switch-plans-second-expansion-of-pyramid-data-center-campus-in-grand-rapids-michigan/ https://baxtel.com/data-center/switch-pyramid-3", "ObjectId": 106 }, "geometry": { "type": "Point", "coordinates": [ -85.62292, 42.79983 ] } },
{ "type": "Feature", "properties": { "Project_Name": "Hyperscale Data: Michigan Dowagiac, Michigan", "Latitude": 41.98421, "Longitude": -86.10862, "Overview": "Built in 2022, this data center was operated by Sentinum, Inc. (\"Sentinum\"), a wholly-owned subsidiary of Ault Alliance. Ault Alliance rebranded as Hyperscale Data, Inc. on September 10, 2024. Data center firm Hyperscale Data is aiming to expand the capacity of its southern Michigan facility to 300 megawatts. The existing facility occupies approximately 100,000 square feet within a larger 617,000 square foot building located on a 34.5-acre site. Benefiting from its proximity to power sources, the completion of the power upgrade is projected to take 44 months from the signing of a formal Letter of Authorization between Alliance Cloud and the utility, which is currently under negotiation.", "Status": "Expansion - Planned", "Source": "https://baxtel.com/data-center/hyperscale-data-michigan?lat=41.99243587643386&lng=-86.09982900000091&distance=4784.484924085532", "ObjectId": 107 }, "geometry": { "type": "Point", "coordinates": [ -86.10862, 41.98421 ] } },
{ "type": "Feature", "properties": { "Project_Name": "Pine Ridge Technology Park", "Latitude": 32.570127, "Longitude": -83.501524, "Overview": "Eagle Rock Partners are pursuing the project, expected completetion after 2028", "Status": null, "Source": "https://www.gpb.org/news/2025/09/19/rural-twiggs-county-approves-rezoning-for-data-center-city-sized-appetite-for-power", "ObjectId": 108 }, "geometry": { "type": "Point", "coordinates": [ -83.501524, 32.570127 ] } },
{ "type": "Feature", "properties": { "Project_Name": "Project Sail", "Latitude": 33.433659, "Longitude": -84.879821, "Overview": "Previously, Atlas Development LLC had proposed a $17 billion, 832-acre data center campus for the site, located near Newnan, Georgia. The original Project Sail was to include 13 data halls, each 378,000 square feet, totaling 4.9 million square feet, with a projected completion date of 2036. The site is located 45 miles south of Atlanta in Coweta County. Logistics real estate giant Prologis acquired Project Sail. The revised plan includes up to nine buildings with 4.34 million square feet of space.", "Status": "Planned", "Source": "https://baxtel.com/data-center/project-sail", "ObjectId": 109 }, "geometry": { "type": "Point", "coordinates": [ -84.879821, 33.433659 ] } },
{ "type": "Feature", "properties": { "Project_Name": "Google West Memphis Arkansas", "Latitude": 35.110344, "Longitude": -90.212926, "Overview": "Groot LLC has proposed \"Project Pyramid,\" a five-building data center campus in West Memphis, Arkansas. Local media speculates that Google may be involved. Groot submitted plans for the project to the US Army Corps of Engineers for environmental approval. The data center campus will span 580 acres of a 1,178-acre property located on the south side of Bollinger Road. It will include five data center buildings and an on-site substation, with power supplied by Entergy Arkansas. Groot reportedly acquired the land parcels in November 2024.", "Status": "Planned 2028 - Under Construction ", "Source": "https://baxtel.com/data-center/google-west-memphis", "ObjectId": 110 }, "geometry": { "type": "Point", "coordinates": [ -90.212926, 35.110344 ] } },
{ "type": "Feature", "properties": { "Project_Name": "Google Rumble Road, Forsyth Georgia", "Latitude": 32.991179, "Longitude": -83.833136, "Overview": "Google has purchased 948.79 acres of rural land in Monroe County, Georgia, located along Rumble Road and I-75. The acquisition, finalized on September 26, 2025, for $42,636,285, is designated for a potential data center. Google stated that while there is no confirmed development timeline, the acquisition secures an option for future business growth. The site is situated near the Rumble Technology Campus, a development that received zoning approval for 12 data center buildings totaling 4.2 million sq ft. This parcel is part of a broader trend of data center development in Georgia, with a significant concentration around Atlanta. Monroe County is in the central part of the state, and Google already operates a data center campus in Douglas County near Atlanta.", "Status": "Land Banked", "Source": "https://www.datacentermap.com/usa/georgia/macon/google-rumble-road/", "ObjectId": 111 }, "geometry": { "type": "Point", "coordinates": [ -83.833136, 32.991179 ] } },
{ "type": "Feature", "properties": { "Project_Name": "Open AI Stargate 1", "Latitude": 32.499661, "Longitude": -99.785334, "Overview": "In January 2024, OpenAI announced 'The Stargate Project,' a new venture planning to invest $500 billion in AI infrastructure over the next four years. The project's equity investors include SoftBank, OpenAI, Oracle, and Abu Dhabi's MGX, with SoftBank managing financial responsibilities and OpenAI overseeing operations. In 2023, Lancium and former Bitcoin miner Crusoe began constructing a data center that is nearing completion and will be occupied by Oracle. It was later revealed that OpenAI would utilize the GPU capacity in Abilene for ChatGPT workloads. The Stargate Project has begun construction of data centers in Texas, with plans to expand to up to 20 facilities across different locations.", "Status": "Under Construction - Planned 2025", "Source": "https://baxtel.com/data-center/openai-stargate-1", "ObjectId": 112 }, "geometry": { "type": "Point", "coordinates": [ -99.785334, 32.499661 ] } }
]
}
